FENGYUN 1C DEB          
1 33678U 99025DFP 20357.25430633  .00000123  00000-0  45369-4 0  9992
2 33678  99.0122 285.8851 0236088 190.4811 169.1405 14.36160436689519
FENGYUN 1C DEB          
1 33679U 99025DFQ 20357.20326895  .00000868  00000-0  13294-3 0  9999
2 33679  99.3900 144.0506 0323179  52.3769 310.6289 14.47407842675498
FENGYUN 1C DEB          
1 33680U 99025DFR 20355.65713314  .00004156  00000-0  62474-3 0  9992
2 33680  99.4376 301.9874 0068482  89.6004  33.8951 14.73601712696278
FENGYUN 1C DEB          
1 33681U 99025DFS 20356.55771439  .00000433  00000-0  32580-3 0  9994
2 33681  99.2618  26.2839 0103335 344.2591 174.6784 13.97450524400844
FENGYUN 1C DEB          
1 33682U 99025DFT 20358.01942274  .00000736  00000-0  42072-3 0  9998
2 33682  99.3826 269.4928 0035491 138.0513 222.3386 14.12666712664709
FENGYUN 1C DEB          
1 33683U 99025DFU 20358.05325667  .00001945  00000-0  58419-3 0  9999
2 33683  98.2840 214.7463 0074145 306.1414  53.2930 14.42218765667420
FENGYUN 1C DEB          
1 33684U 99025DFV 20356.15467930  .00001812  00000-0  23263-3 0  9991
2 33684  99.0426 248.7894 0427944  17.6092 343.9419 14.34629696666880
FENGYUN 1C DEB          
1 33686U 99025DFX 20357.14963865  .00002824  00000-0  47602-3 0  9998
2 33686  98.8868 328.2586 0060020 170.7445 189.4880 14.69239024423484
FENGYUN 1C DEB          
1 33687U 99025DFY 20356.56203325  .00000964  00000-0  11404-3 0  9996
2 33687  98.9860 109.1145 0249286 310.6339  47.3420 14.68002789446016
FENGYUN 1C DEB          
1 33688U 99025DFZ 20358.04240961  .00001145  00000-0  53766-3 0  9998
2 33688  99.3637 296.6906 0077732  60.6871 300.2042 14.20651626656561
FENGYUN 1C DEB          
1 33689U 99025DGA 20357.16034519  .00000322  00000-0  14122-3 0  9990
2 33689  99.5574 144.5563 0056984 339.7961 194.1394 14.30587924434722
FENGYUN 1C DEB          
1 33690U 99025DGB 20358.14811041  .00000966  00000-0  40529-3 0  9998
2 33690  98.6951  67.1677 0047269  22.1688 338.1523 14.27648387678017
FENGYUN 1C DEB          
1 33691U 99025DGC 20356.79705751  .00000586  00000-0  38289-3 0  9996
2 33691  99.0486 291.1943 0085392 121.7008 239.2519 14.04449160648715
FENGYUN 1C DEB          
1 33692U 99025DGD 20357.33265372  .00007193  00000-0  11546-2 0  9995
2 33692  99.1182  24.6347 0022324  77.1812 339.0424 14.71838473668966
FENGYUN 1C DEB          
1 33693U 99025DGE 20357.59737542  .00000851  00000-0  90389-3 0  9994
2 33693  99.3126 223.9798 0237431  37.7968 323.9589 13.65401656634678
FENGYUN 1C DEB          
1 33697U 99025DGJ 20357.02632517  .00000978  00000-0  65129-3 0  9996
2 33697  99.0471  78.4180 0084630 284.2917  74.8862 14.01900912676834
FENGYUN 1C DEB          
1 33698U 99025DGK 20356.30297758  .00000051  00000-0  26404-4 0  9997
2 33698  99.6378  28.3030 0152782 177.0299 183.1834 14.49392129692705
FENGYUN 1C DEB          
1 33699U 99025DGL 20357.74931919  .00009125  00000-0  17673-2 0  9998
2 33699  98.3156 337.8610 0052712 240.0044 246.2393 14.62636743687106
FENGYUN 1C DEB          
1 33700U 99025DGM 20357.34270471  .00004599  00000-0  51875-3 0  9999
2 33700  99.1276 218.5041 0103044  18.5715 341.9212 14.83386108292231
FENGYUN 1C DEB          
1 33701U 99025DGN 20358.11396241  .00000349  00000-0  27458-3 0  9999
2 33701  98.6291  43.1046 0154145 189.0669 200.8630 13.92379842653076
FENGYUN 1C DEB          
1 33706U 99025DGT 20358.00708836  .00002745  00000-0  62939-3 0  9994
2 33706  98.9222 263.1558 0122561  54.3227 306.9302 14.51936270682077
FENGYUN 1C DEB          
1 33707U 99025DGU 20356.11426178  .00001943  00000-0  30635-3 0  9998
2 33707  99.0626 129.1132 0107898  73.0011 288.2982 14.69993943712891
FENGYUN 1C DEB          
1 33708U 99025DGV 20358.02891945  .00004072  00000-0  52551-3 0  9996
2 33708  99.4728  22.8188 0062240 260.7120  98.7045 14.80375949709912
FENGYUN 1C DEB          
1 33709U 99025DGW 20358.11353364  .00036498  00000-0  15188-2 0  9996
2 33709  99.0274 232.7048 0027142 164.0528 196.1565 15.23333498683037
FENGYUN 1C DEB          
1 33710U 99025DGX 20357.17167650  .00000634  00000-0  42229-3 0  9994
2 33710  99.0153  80.4410 0060492 186.4245 173.6153 14.04004129421166
FENGYUN 1C DEB          
1 33711U 99025DGY 20357.97067226  .00000273  00000-0  21986-3 0  9997
2 33711  99.3481   1.7554 0105089 325.7307  63.1284 13.96852150671247
FENGYUN 1C DEB          
1 33713U 99025DHA 20358.13420857  .00001637  00000-0  23243-3 0  9994
2 33713  99.0727 144.2115 0169500  91.3991 270.6635 14.69247574685180
FENGYUN 1C DEB          
1 33714U 99025DHB 20357.28553556  .00001744  00000-0  54509-3 0  9991
2 33714  99.9274  31.9575 0053899 343.7023  16.2426 14.41513516380201
FENGYUN 1C DEB          
1 33716U 99025DHD 20354.30959872  .00000011  00000-0  21633-4 0  9993
2 33716  99.0157 204.5045 0095057 266.0752  92.9558 14.30830518391281
FENGYUN 1C DEB          
1 33718U 99025DHF 20357.67202034  .00000184  00000-0  15713-3 0  9991
2 33718  99.7004 303.1648 0110095 199.6905 159.9988 13.97678397679329
FENGYUN 1C DEB          
1 33719U 99025DHG 20356.88745689  .00000528  00000-0  29203-3 0  9993
2 33719  98.9384  33.7132 0032748 233.8395 300.6183 14.15503953662597
FENGYUN 1C DEB          
1 33720U 99025DHH 20356.94634466  .00000261  00000-0  10472-3 0  9994
2 33720  98.3829  40.3714 0092074 105.5602  16.8546 14.33473368672799
FENGYUN 1C DEB          
1 33721U 99025DHJ 20357.25182284  .00001390  00000-0  24044-3 0  9990
2 33721  98.8530 341.6663 0130751 324.0403  35.2051 14.64840410709120
FENGYUN 1C DEB          
1 33722U 99025DHK 20358.06694637  .00000419  00000-0  20814-3 0  9993
2 33722  98.7334  34.1354 0171174  70.0182 291.9335 14.14693863664588
FENGYUN 1C DEB          
1 33723U 99025DHL 20357.32045317  .00000925  00000-0  62537-3 0  9997
2 33723  99.2512  26.6028 0115392 314.7509 101.6740 13.99855434381240
FENGYUN 1C DEB          
1 33724U 99025DHM 20357.91713142  .00000208  00000-0  12791-3 0  9992
2 33724  98.7466  27.7170 0028719 357.2044 124.1114 14.15662612690235
FENGYUN 1C DEB          
1 33726U 99025DHP 20358.04071772  .00000200  00000-0  11254-3 0  9990
2 33726  98.4506 183.2414 0202910 178.9767 312.0041 14.09942113664233
FENGYUN 1C DEB          
1 33727U 99025DHQ 20352.91511788  .00003587  00000-0  67416-3 0  9999
2 33727  99.7605  40.5642 0028747  32.0462 328.2477 14.65210663693393
FENGYUN 1C DEB          
1 33728U 99025DHR 20357.99126462  .00000800  00000-0  10206-3 0  9994
2 33728  99.0219 175.3146 0205898 157.4362 353.6367 14.71228500715682
FENGYUN 1C DEB          
1 33730U 99025DHT 20357.00974315  .00000885  00000-0  30922-3 0  9997
2 33730  99.0214 266.0048 0064400  10.5969 349.6556 14.36740340694350
FENGYUN 1C DEB          
1 33731U 99025DHU 20357.20024796  .00000562  00000-0  47841-3 0  9999
2 33731  99.3844 324.9825 0139244 248.7536 109.8701 13.87357436652070
FENGYUN 1C DEB          
1 33733U 99025DHW 20353.57393247  .00001130  00000-0  67141-3 0  9994
2 33733  99.1840  10.0441 0109916 260.0614 229.6078 14.06675594647151
FENGYUN 1C DEB          
1 33734U 99025DHX 20356.99846094  .00000692  00000-0  32948-3 0  9996
2 33734  98.9079  82.3270 0128316 131.1997 230.0326 14.18274633648797
FENGYUN 1C DEB          
1 33735U 99025DHY 20356.45859766  .00002619  00000-0  10205-2 0  9990
2 33735  98.9497  88.3284 0030402  80.8472 279.6147 14.30360303385724
FENGYUN 1C DEB          
1 33736U 99025DHZ 20355.75361153  .00001460  00000-0  43452-3 0  9995
2 33736  99.6762 282.3134 0045396 271.8651  87.7337 14.44408962413200
FENGYUN 1C DEB          
1 33737U 99025DJA 20357.43822515  .00000259  00000-0  20006-3 0  9992
2 33737  98.4126 312.4792 0139491 338.5284 146.6481 13.96238937633488
FENGYUN 1C DEB          
1 33738U 99025DJB 20357.30366123  .00000261  00000-0  19544-3 0  9995
2 33738  99.3449  19.2472 0194985 296.7905 123.6335 13.95051286638801
FENGYUN 1C DEB          
1 33739U 99025DJC 20357.38345383  .00004287  00000-0  85513-3 0  9990
2 33739  98.9816 328.9354 0060423  29.7146 330.7462 14.61409907661690
FENGYUN 1C DEB          
1 33740U 99025DJD 20356.87939023  .00000068  00000-0  61804-4 0  9996
2 33740  98.8512  26.0806 0000634 251.9089 108.2013 14.11178138645141
FENGYUN 1C DEB          
1 33741U 99025DJE 20356.97745253  .00000594  00000-0  43035-3 0  9997
2 33741  98.5108   1.6793 0147216 139.7605 221.4567 13.94822677315891
FENGYUN 1C DEB          
1 33745U 99025DJJ 20357.14107291  .00000803  00000-0  46989-3 0  9999
2 33745  99.0878 326.4933 0065362 348.8850  11.0873 14.10245372403188
FENGYUN 1C DEB          
1 33747U 99025DJL 20355.92221470  .00001005  00000-0  64859-3 0  9992
2 33747  99.1603  45.6772 0109427 244.5209 114.4605 14.02456425645609
FENGYUN 1C DEB          
1 33748U 99025DJM 20357.36642434  .00000621  00000-0  30022-3 0  9998
2 33748  98.7515  43.1841 0044278 124.5326 236.0043 14.21586634655195
FENGYUN 1C DEB          
1 35088U 99025DJQ 20357.23744525  .00000490  00000-0  32672-3 0  9994
2 35088  94.6789 333.4207 0361206 226.1465 130.9326 13.75152555336156
FENGYUN 1C DEB          
1 35089U 99025DJR 20357.05993029  .00000082  00000-0  65050-4 0  9994
2 35089  98.7039  37.3670 0028836 240.0817 119.7492 14.14460158351611
FENGYUN 1C DEB          
1 35090U 99025DJS 20358.08486828  .00000943  00000-0  59495-3 0  9995
2 35090  99.0993 311.5947 0065470  49.2276 311.4548 14.05625362628398
FENGYUN 1C DEB          
1 35091U 99025DJT 20357.41189225  .00001038  00000-0  40265-3 0  9994
2 35091  98.6822  62.2696 0077534 310.0532  49.3867 14.30447315637944
FENGYUN 1C DEB          
1 35093U 99025DJV 20356.51065784  .00001240  00000-0  28073-3 0  9997
2 35093  98.6191  84.3215 0154639  53.7043 307.8319 14.50928473396887
FENGYUN 1C DEB          
1 35094U 99025DJW 20357.36372115  .00002639  00000-0  57240-3 0  9992
2 35094  97.7419 210.6221 0183259 129.2379  42.9147 14.48917836392928
FENGYUN 1C DEB          
1 35095U 99025DJX 20357.51169404  .00001100  00000-0  22244-3 0  9993
2 35095  98.4763  86.6801 0213850 342.6564  16.7401 14.50155372453788
